{
  "type": "FeatureCollection",
  "features": [
    {
      "type": "Feature",
      "properties": {
        "norad_id": 40069,
        "name": "METEOR-M 2",
        "group": "weather",
        "lat": -13.880043613826386,
        "lon": 136.63533729786332,
        "alt_km": 822.3866283703983,
        "timestamp": "2025-12-06T22:38:42.377770+00:00",
        "meta_object_name": "METEOR-M 2",
        "meta_object_id": "2014-037A",
        "meta_epoch": "2025-12-06T13:17:16.733760",
        "meta_mean_motion": 14.21382863,
        "meta_eccentricity": 0.00047965,
        "meta_inclination": 98.4896,
        "meta_ra_of_asc_node": 318.3756,
        "meta_arg_of_pericenter": 229.8912,
        "meta_mean_anomaly": 130.1846,
        "meta_ephemeris_type": 0,
        "meta_classification_type": "U",
        "meta_norad_cat_id": 40069,
        "meta_element_set_no": 999,
        "meta_rev_at_epoch": 59195,
        "meta_bstar": 0.00015227847,
        "meta_mean_motion_dot": 2.91e-06,
        "meta_mean_motion_ddot": 0,
        "tle_line1": "1 40069U 14037A   25340.55366590  .00000291  00000+0  15228-3 0  9999",
        "tle_line2": "2 40069  98.4896 318.3756 0004796 229.8912 130.1846 14.21382863591957"
      },
      "geometry": {
        "type": "Point",
        "coordinates": [
          136.63533729786332,
          -13.880043613826386
        ]
      }
    },
    {
      "type": "Feature",
      "properties": {
        "norad_id": 40267,
        "name": "HIMAWARI-8",
        "group": "weather",
        "lat": 0.02292712664247646,
        "lon": -163.70407882371893,
        "alt_km": 35786.66765762982,
        "timestamp": "2025-12-06T22:38:42.377782+00:00",
        "meta_object_name": "HIMAWARI-8",
        "meta_object_id": "2014-060A",
        "meta_epoch": "2025-12-06T13:53:51.604800",
        "meta_mean_motion": 1.00269734,
        "meta_eccentricity": 0.00013461,
        "meta_inclination": 0.0515,
        "meta_ra_of_asc_node": 138.7422,
        "meta_arg_of_pericenter": 147.5251,
        "meta_mean_anomaly": 138.486,
        "meta_ephemeris_type": 0,
        "meta_classification_type": "U",
        "meta_norad_cat_id": 40267,
        "meta_element_set_no": 999,
        "meta_rev_at_epoch": 4082,
        "meta_bstar": 0,
        "meta_mean_motion_dot": -2.69e-06,
        "meta_mean_motion_ddot": 0,
        "tle_line1": "1 40267U 14060A   25340.57906950 -.00000269  00000+0  00000+0 0  9991",
        "tle_line2": "2 40267   0.0515 138.7422 0001346 147.5251 138.4860  1.00269734 40824"
      },
      "geometry": {
        "type": "Point",
        "coordinates": [
          -163.70407882371893,
          0.02292712664247646
        ]
      }
    },
    {
      "type": "Feature",
      "properties": {
        "norad_id": 40367,
        "name": "FENGYUN 2G",
        "group": "weather",
        "lat": 5.081252583976064,
        "lon": 155.23883690884222,
        "alt_km": 35792.69934482929,
        "timestamp": "2025-12-06T22:38:42.377794+00:00",
        "meta_object_name": "FENGYUN 2G",
        "meta_object_id": "2014-090A",
        "meta_epoch": "2025-12-05T19:18:26.245152",
        "meta_mean_motion": 1.002665,
        "meta_eccentricity": 0.00031526,
        "meta_inclination": 5.1497,
        "meta_ra_of_asc_node": 75.1781,
        "meta_arg_of_pericenter": 195.2891,
        "meta_mean_anomaly": 193.6781,
        "meta_ephemeris_type": 0,
        "meta_classification_type": "U",
        "meta_norad_cat_id": 40367,
        "meta_element_set_no": 999,
        "meta_rev_at_epoch": 4006,
        "meta_bstar": 0,
        "meta_mean_motion_dot": -2.95e-06,
        "meta_mean_motion_ddot": 0,
        "tle_line1": "1 40367U 14090A   25339.80447043 -.00000295  00000+0  00000+0 0  9991",
        "tle_line2": "2 40367   5.1497  75.1781 0003152 195.2891 193.6781  1.00266500 40068"
      },
      "geometry": {
        "type": "Point",
        "coordinates": [
          155.23883690884222,
          5.081252583976064
        ]
      }
    },
    {
      "type": "Feature",
      "properties": {
        "norad_id": 40732,
        "name": "METEOSAT-11 (MSG-4)",
        "group": "weather",
        "lat": -0.3057832908457254,
        "lon": 65.0339473743413,
        "alt_km": 35790.2419366175,
        "timestamp": "2025-12-06T22:38:42.377807+00:00",
        "meta_object_name": "METEOSAT-11 (MSG-4)",
        "meta_object_id": "2015-034A",
        "meta_epoch": "2025-12-06T06:51:43.674624",
        "meta_mean_motion": 1.00265459,
        "meta_eccentricity": 9.763e-05,
        "meta_inclination": 2.7192,
        "meta_ra_of_asc_node": 72.0205,
        "meta_arg_of_pericenter": 118.5529,
        "meta_mean_anomaly": 357.0911,
        "meta_ephemeris_type": 0,
        "meta_classification_type": "U",
        "meta_norad_cat_id": 40732,
        "meta_element_set_no": 999,
        "meta_rev_at_epoch": 528,
        "meta_bstar": 0,
        "meta_mean_motion_dot": 6.8e-07,
        "meta_mean_motion_ddot": 0,
        "tle_line1": "1 40732U 15034A   25340.28592216  .00000068  00000+0  00000+0 0  9990",
        "tle_line2": "2 40732   2.7192  72.0205 0000976 118.5529 357.0911  1.00265459  5281"
      },
      "geometry": {
        "type": "Point",
        "coordinates": [
          65.0339473743413,
          -0.3057832908457254
        ]
      }
    },
    {
      "type": "Feature",
      "properties": {
        "norad_id": 41105,
        "name": "ELEKTRO-L 2",
        "group": "weather",
        "lat": -3.2415471817556556,
        "lon": 41.32183855384999,
        "alt_km": 35796.70842350177,
        "timestamp": "2025-12-06T22:38:42.377820+00:00",
        "meta_object_name": "ELEKTRO-L 2",
        "meta_object_id": "2015-074A",
        "meta_epoch": "2025-12-06T01:36:40.788864",
        "meta_mean_motion": 1.00271999,
        "meta_eccentricity": 0.00039355,
        "meta_inclination": 6.208,
        "meta_ra_of_asc_node": 72.9071,
        "meta_arg_of_pericenter": 200.4894,
        "meta_mean_anomaly": 171.3714,
        "meta_ephemeris_type": 0,
        "meta_classification_type": "U",
        "meta_norad_cat_id": 41105,
        "meta_element_set_no": 999,
        "meta_rev_at_epoch": 3657,
        "meta_bstar": 0,
        "meta_mean_motion_dot": -1.12e-06,
        "meta_mean_motion_ddot": 0,
        "tle_line1": "1 41105U 15074A   25340.06713876 -.00000112  00000+0  00000+0 0  9993",
        "tle_line2": "2 41105   6.2080  72.9071 0003935 200.4894 171.3714  1.00271999 36575"
      },
      "geometry": {
        "type": "Point",
        "coordinates": [
          41.32183855384999,
          -3.2415471817556556
        ]
      }
    },
    {
      "type": "Feature",
      "properties": {
        "norad_id": 41752,
        "name": "INSAT-3DR",
        "group": "weather",
        "lat": 0.06145454991259881,
        "lon": 129.54794549800255,
        "alt_km": 35833.75973075537,
        "timestamp": "2025-12-06T22:38:42.377832+00:00",
        "meta_object_name": "INSAT-3DR",
        "meta_object_id": "2016-054A",
        "meta_epoch": "2025-12-06T12:18:19.893600",
        "meta_mean_motion": 1.00269821,
        "meta_eccentricity": 0.00145602,
        "meta_inclination": 0.0766,
        "meta_ra_of_asc_node": 87.5745,
        "meta_arg_of_pericenter": 181.9861,
        "meta_mean_anomaly": 64.59,
        "meta_ephemeris_type": 0,
        "meta_classification_type": "U",
        "meta_norad_cat_id": 41752,
        "meta_element_set_no": 999,
        "meta_rev_at_epoch": 3388,
        "meta_bstar": 0,
        "meta_mean_motion_dot": -7e-07,
        "meta_mean_motion_ddot": 0,
        "tle_line1": "1 41752U 16054A   25340.51273025 -.00000070  00000+0  00000+0 0  9990",
        "tle_line2": "2 41752   0.0766  87.5745 0014560 181.9861  64.5900  1.00269821 33881"
      },
      "geometry": {
        "type": "Point",
        "coordinates": [
          129.54794549800255,
          0.06145454991259881
        ]
      }
    },
    {
      "type": "Feature",
      "properties": {
        "norad_id": 41836,
        "name": "HIMAWARI-9",
        "group": "weather",
        "lat": -0.0021027092248771494,
        "lon": -163.62035694817416,
        "alt_km": 35787.2542294649,
        "timestamp": "2025-12-06T22:38:42.377845+00:00",
        "meta_object_name": "HIMAWARI-9",
        "meta_object_id": "2016-064A",
        "meta_epoch": "2025-12-06T10:54:42.902208",
        "meta_mean_motion": 1.00270656,
        "meta_eccentricity": 0.00017594,
        "meta_inclination": 0.0146,
        "meta_ra_of_asc_node": 60.6584,
        "meta_arg_of_pericenter": 232.1919,
        "meta_mean_anomaly": 87.0818,
        "meta_ephemeris_type": 0,
        "meta_classification_type": "U",
        "meta_norad_cat_id": 41836,
        "meta_element_set_no": 999,
        "meta_rev_at_epoch": 3327,
        "meta_bstar": 0,
        "meta_mean_motion_dot": -2.68e-06,
        "meta_mean_motion_ddot": 0,
        "tle_line1": "1 41836U 16064A   25340.45466322 -.00000268  00000+0  00000+0 0  9990",
        "tle_line2": "2 41836   0.0146  60.6584 0001759 232.1919  87.0818  1.00270656 33277"
      },
      "geometry": {
        "type": "Point",
        "coordinates": [
          -163.62035694817416,
          -0.0021027092248771494
        ]
      }
    }
  ]
}